{
  "type": "FeatureCollection",
  "features": [
    {
      "type": "Feature",
      "properties": {
        "name": "Culemannstraße, Hannover",
        "osm_way_id": 1089017428,
        "osm_way_ids": [
          1089017428,
          59322751,
          1089017427
        ],
        "highway": "tertiary",
        "maxspeed": "50",
        "lanes": "2",
        "source": "OpenStreetMap contributors, downloaded 2026-09-21 via Map API",
        "source_url": "https://www.openstreetmap.org/way/1089017428",
        "license": "ODbL-1.0"
      },
      "geometry": {
        "type": "LineString",
        "coordinates": [
          [
            9.7370524,
            52.3643054
          ],
          [
            9.7366762,
            52.36449
          ],
          [
            9.7362319,
            52.3646801
          ],
          [
            9.7357475,
            52.3648532
          ],
          [
            9.7355026,
            52.3649485
          ],
          [
            9.735379,
            52.3650098
          ],
          [
            9.735267,
            52.3650949
          ],
          [
            9.735214,
            52.3651475
          ],
          [
            9.7351772,
            52.3652001
          ],
          [
            9.7351413,
            52.3653168
          ],
          [
            9.7351466,
            52.3654323
          ],
          [
            9.7352428,
            52.3657026
          ],
          [
            9.7353298,
            52.3660774
          ],
          [
            9.7353261,
            52.3663386
          ],
          [
            9.7352745,
            52.3666161
          ],
          [
            9.735197,
            52.3668392
          ],
          [
            9.7350604,
            52.3670852
          ],
          [
            9.7350191,
            52.3671444
          ],
          [
            9.7349177,
            52.3672896
          ],
          [
            9.7348899,
            52.3673277
          ],
          [
            9.7346763,
            52.3676061
          ],
          [
            9.7343752,
            52.3679981
          ],
          [
            9.7343026,
            52.3681132
          ],
          [
            9.7342419,
            52.3682227
          ]
        ]
      }
    }
  ]
}
