{
  "type": "FeatureCollection",
  "features": [
    {
      "type": "Feature",
      "properties": {
        "name": "Wilhelm-Busch-Straße, Hannover",
        "osm_way_id": 4289539,
        "highway": "residential",
        "maxspeed": "30",
        "surface": "asphalt",
        "source": "OpenStreetMap contributors, downloaded 2026-09-20 via Overpass API",
        "source_url": "https://www.openstreetmap.org/way/4289539",
        "license": "ODbL-1.0"
      },
      "geometry": {
        "type": "LineString",
        "coordinates": [
          [9.7212872, 52.3791996],
          [9.7213765, 52.3792459],
          [9.7214192, 52.3792667],
          [9.7215136, 52.3793211],
          [9.7215842, 52.3793860],
          [9.7216516, 52.3794934],
          [9.7216736, 52.3795735],
          [9.7216848, 52.3796586],
          [9.7216756, 52.3797571],
          [9.7216653, 52.3798079],
          [9.7216083, 52.3800215],
          [9.7215491, 52.3802116],
          [9.7215231, 52.3803367],
          [9.7215060, 52.3804524],
          [9.7214765, 52.3807286],
          [9.7214736, 52.3808922],
          [9.7214725, 52.3809513],
          [9.7214715, 52.3810062],
          [9.7214727, 52.3810772],
          [9.7214755, 52.3811138],
          [9.7214820, 52.3812117],
          [9.7214886, 52.3812866],
          [9.7215007, 52.3814582],
          [9.7215081, 52.3815138],
          [9.7215232, 52.3816265],
          [9.7215355, 52.3816673],
          [9.7215502, 52.3816907],
          [9.7215907, 52.3817328],
          [9.7216299, 52.3817721]
        ]
      }
    }
  ]
}
