{
  "type": "FeatureCollection",
  "features": [
    {
      "type": "Feature",
      "properties": {
        "name": "Robert-Enke-Straße, Hannover",
        "osm_way_id": 27095856,
        "osm_way_ids": [
          27095856,
          1540868152,
          681074694
        ],
        "highway": "tertiary",
        "maxspeed": "50",
        "lanes": "2",
        "source": "OpenStreetMap contributors, downloaded 2026-09-21 via Map API",
        "source_url": "https://www.openstreetmap.org/way/27095856",
        "license": "ODbL-1.0"
      },
      "geometry": {
        "type": "LineString",
        "coordinates": [
          [
            9.7337049,
            52.3622064
          ],
          [
            9.7335378,
            52.3621906
          ],
          [
            9.7329139,
            52.3621332
          ],
          [
            9.7327615,
            52.3621192
          ],
          [
            9.7325722,
            52.3620984
          ],
          [
            9.7324324,
            52.362083
          ],
          [
            9.7322984,
            52.3620695
          ],
          [
            9.7314596,
            52.3619853
          ],
          [
            9.7312477,
            52.3619601
          ],
          [
            9.7306687,
            52.3618722
          ],
          [
            9.7305736,
            52.3618554
          ],
          [
            9.7291898,
            52.3616096
          ],
          [
            9.7282932,
            52.3614493
          ],
          [
            9.7281153,
            52.3614146
          ],
          [
            9.7280335,
            52.3613952
          ],
          [
            9.7279518,
            52.3613721
          ],
          [
            9.7278866,
            52.3613487
          ],
          [
            9.7278206,
            52.3613221
          ],
          [
            9.7277756,
            52.3613014
          ],
          [
            9.7277257,
            52.3612752
          ],
          [
            9.7276777,
            52.3612457
          ],
          [
            9.7276278,
            52.3612113
          ]
        ]
      }
    }
  ]
}
